FENGYUN 1C DEB          
1 32180U 99025CUA 26061.61378272  .00000081  00000+0  11033-3 0  9999
2 32180  99.5732 108.0461 0136378   0.7298 152.4130 13.82350240953714
FENGYUN 1C DEB          
1 32181U 99025CUB 26061.82654596  .00007023  00000+0  15228-2 0  9991
2 32181  99.4721 181.4213 0072774 205.5755 306.5000 14.56868863978862
FENGYUN 1C DEB          
1 32183U 99025CUD 26057.36319916  .00001090  00000+0  63301-3 0  9995
2 32183  98.7025 111.1703 0042833 203.6463 156.2740 14.10291608738306
FENGYUN 1C DEB          
1 32184U 99025CUE 26049.38342000  .00207585  00000+0  20372-2 0  9996
2 32184  98.1181 202.4936 0038431 104.8832 255.6686 15.64462753994530
FENGYUN 1C DEB          
1 32185U 99025CUF 26062.06164854  .00081807  00000+0  34043-2 0  9993
2 32185  98.8970 286.1957 0129702 109.2257 252.3057 15.16015800962274
FENGYUN 1C DEB          
1 32186U 99025CUG 26056.91900708  .00000803  00000+0  65982-3 0  9991
2 32186  99.5999 113.1799 0270894   4.8015 175.9966 13.76696057636447
FENGYUN 1C DEB          
1 32187U 99025CUH 26062.02895000  .00000287  00000+0  39548-3 0  9994
2 32187  99.4941 142.4692 0292499 304.8803 180.6129 13.50550535673429
FENGYUN 1C DEB          
1 32191U 99025CUM 26058.39701886  .00002650  00000+0  10874-2 0  9998
2 32191  98.6977 118.9282 0090457 323.9730  35.5374 14.25723753655931
FENGYUN 1C DEB          
1 32192U 99025CUN 26060.09616868  .00000350  00000+0  31778-3 0  9996
2 32192  98.6466 289.6448 0181221 310.3737  48.1718 13.82583043937957
FENGYUN 1C DEB          
1 32197U 99025CUT 26060.70498046  .00001666  00000+0  54367-3 0  9995
2 32197  98.9010 336.9572 0162066 359.3324  30.1384 14.32876915955549
FENGYUN 1C DEB          
1 32198U 99025CUU 26041.14848559  .00003532  00000+0  19626-2 0  9993
2 32198  98.3441 188.6841 0095082 124.2314 236.7911 14.09397708577827
FENGYUN 1C DEB          
1 32200U 99025CUW 26062.08068148  .00001838  00000+0  94521-3 0  9996
2 32200  98.7818 114.9449 0040524  63.6325 296.9001 14.16050646955001
FENGYUN 1C DEB          
1 32203U 99025CUZ 26061.49742417  .00039356  00000+0  53645-3 0  9999
2 32203  97.0094 315.2895 0121816 158.5376 202.1048 15.49020536763297
FENGYUN 1C DEB          
1 32205U 99025CVB 26057.48499225  .00000258  00000+0  15823-3 0  9996
2 32205  98.6811  64.1861 0012102  75.1667  77.0454 14.13968988955688
FENGYUN 1C DEB          
1 32207U 99025CVD 26040.68973707  .00001718  00000+0  54336-3 0  9998
2 32207  99.8640  13.4115 0084654 329.6656 209.0182 14.39779820651555
FENGYUN 1C DEB          
1 32209U 99025CVF 26060.31072340  .00000869  00000+0  10719-2 0  9997
2 32209  99.4260   8.3023 0328142 189.1291 170.3782 13.47437482910343
