[{"OBJECT_NAME":"FENGYUN 1C DEB","OBJECT_ID":"1999-025CUA","EPOCH":"2026-03-02T14:43:50.827008","MEAN_MOTION":13.8235024,"ECCENTRICITY":0.0136378,"INCLINATION":99.5732,"RA_OF_ASC_NODE":108.0461,"ARG_OF_PERICENTER":0.7298,"MEAN_ANOMALY":152.413,"EPHEMERIS_TYPE":0,"CLASSIFICATION_TYPE":"U","NORAD_CAT_ID":32180,"ELEMENT_SET_NO":999,"REV_AT_EPOCH":95371,"BSTAR":0.00011033,"MEAN_MOTION_DOT":8.1e-7,"MEAN_MOTION_DDOT":0},{"OBJECT_NAME":"FENGYUN 1C DEB","OBJECT_ID":"1999-025CUB","EPOCH":"2026-03-02T19:50:13.570944","MEAN_MOTION":14.56868863,"ECCENTRICITY":0.00727747,"INCLINATION":99.4721,"RA_OF_ASC_NODE":181.4213,"ARG_OF_PERICENTER":205.5755,"MEAN_ANOMALY":306.5,"EPHEMERIS_TYPE":0,"CLASSIFICATION_TYPE":"U","NORAD_CAT_ID":32181,"ELEMENT_SET_NO":999,"REV_AT_EPOCH":97886,"BSTAR":0.0015228131,"MEAN_MOTION_DOT":7.023e-5,"MEAN_MOTION_DDOT":0},{"OBJECT_NAME":"FENGYUN 1C DEB","OBJECT_ID":"1999-025CUD","EPOCH":"2026-02-26T08:43:00.407424","MEAN_MOTION":14.10291608,"ECCENTRICITY":0.0042833,"INCLINATION":98.7025,"RA_OF_ASC_NODE":111.1703,"ARG_OF_PERICENTER":203.6463,"MEAN_ANOMALY":156.274,"EPHEMERIS_TYPE":0,"CLASSIFICATION_TYPE":"U","NORAD_CAT_ID":32183,"ELEMENT_SET_NO":999,"REV_AT_EPOCH":73830,"BSTAR":0.00063301,"MEAN_MOTION_DOT":1.09e-5,"MEAN_MOTION_DDOT":0},{"OBJECT_NAME":"FENGYUN 1C DEB","OBJECT_ID":"1999-025CUE","EPOCH":"2026-02-18T09:12:07.488000","MEAN_MOTION":15.64462753,"ECCENTRICITY":0.0038431,"INCLINATION":98.1181,"RA_OF_ASC_NODE":202.4936,"ARG_OF_PERICENTER":104.8832,"MEAN_ANOMALY":255.6686,"EPHEMERIS_TYPE":0,"CLASSIFICATION_TYPE":"U","NORAD_CAT_ID":32184,"ELEMENT_SET_NO":999,"REV_AT_EPOCH":99453,"BSTAR":0.0020372,"MEAN_MOTION_DOT":0.00207585,"MEAN_MOTION_DDOT":0},{"OBJECT_NAME":"FENGYUN 1C DEB","OBJECT_ID":"1999-025CUF","EPOCH":"2026-03-03T01:28:46.433856","MEAN_MOTION":15.160158,"ECCENTRICITY":0.0129702,"INCLINATION":98.897,"RA_OF_ASC_NODE":286.1957,"ARG_OF_PERICENTER":109.2257,"MEAN_ANOMALY":252.3057,"EPHEMERIS_TYPE":0,"CLASSIFICATION_TYPE":"U","NORAD_CAT_ID":32185,"ELEMENT_SET_NO":999,"REV_AT_EPOCH":96227,"BSTAR":0.0034043,"MEAN_MOTION_DOT":0.00081807,"MEAN_MOTION_DDOT":0},{"OBJECT_NAME":"FENGYUN 1C DEB","OBJECT_ID":"1999-025CUG","EPOCH":"2026-02-25T22:03:22.211712","MEAN_MOTION":13.76696057,"ECCENTRICITY":0.02708942,"INCLINATION":99.5999,"RA_OF_ASC_NODE":113.1799,"ARG_OF_PERICENTER":4.8015,"MEAN_ANOMALY":175.9966,"EPHEMERIS_TYPE":0,"CLASSIFICATION_TYPE":"U","NORAD_CAT_ID":32186,"ELEMENT_SET_NO":999,"REV_AT_EPOCH":63644,"BSTAR":0.00065981841,"MEAN_MOTION_DOT":8.03e-6,"MEAN_MOTION_DDOT":0},{"OBJECT_NAME":"FENGYUN 1C DEB","OBJECT_ID":"1999-025CUH","EPOCH":"2026-03-03T00:41:41.280000","MEAN_MOTION":13.50550535,"ECCENTRICITY":0.0292499,"INCLINATION":99.4941,"RA_OF_ASC_NODE":142.4692,"ARG_OF_PERICENTER":304.8803,"MEAN_ANOMALY":180.6129,"EPHEMERIS_TYPE":0,"CLASSIFICATION_TYPE":"U","NORAD_CAT_ID":32187,"ELEMENT_SET_NO":999,"REV_AT_EPOCH":67342,"BSTAR":0.00039548,"MEAN_MOTION_DOT":2.87e-6,"MEAN_MOTION_DDOT":0},{"OBJECT_NAME":"FENGYUN 1C DEB","OBJECT_ID":"1999-025CUM","EPOCH":"2026-02-27T09:31:42.429504","MEAN_MOTION":14.25723753,"ECCENTRICITY":0.00904579,"INCLINATION":98.6977,"RA_OF_ASC_NODE":118.9282,"ARG_OF_PERICENTER":323.973,"MEAN_ANOMALY":35.5374,"EPHEMERIS_TYPE":0,"CLASSIFICATION_TYPE":"U","NORAD_CAT_ID":32191,"ELEMENT_SET_NO":999,"REV_AT_EPOCH":65593,"BSTAR":0.0010874169,"MEAN_MOTION_DOT":2.65e-5,"MEAN_MOTION_DDOT":0},{"OBJECT_NAME":"FENGYUN 1C DEB","OBJECT_ID":"1999-025CUN","EPOCH":"2026-03-01T02:18:28.973952","MEAN_MOTION":13.82583043,"ECCENTRICITY":0.01812215,"INCLINATION":98.6466,"RA_OF_ASC_NODE":289.6448,"ARG_OF_PERICENTER":310.3737,"MEAN_ANOMALY":48.1718,"EPHEMERIS_TYPE":0,"CLASSIFICATION_TYPE":"U","NORAD_CAT_ID":32192,"ELEMENT_SET_NO":999,"REV_AT_EPOCH":93795,"BSTAR":0.00031778425,"MEAN_MOTION_DOT":3.5e-6,"MEAN_MOTION_DDOT":0},{"OBJECT_NAME":"FENGYUN 1C DEB","OBJECT_ID":"1999-025CUT","EPOCH":"2026-03-01T16:55:10.311744","MEAN_MOTION":14.32876915,"ECCENTRICITY":0.0162066,"INCLINATION":98.901,"RA_OF_ASC_NODE":336.9572,"ARG_OF_PERICENTER":359.3324,"MEAN_ANOMALY":30.1384,"EPHEMERIS_TYPE":0,"CLASSIFICATION_TYPE":"U","NORAD_CAT_ID":32197,"ELEMENT_SET_NO":999,"REV_AT_EPOCH":95554,"BSTAR":0.00054367166,"MEAN_MOTION_DOT":1.666e-5,"MEAN_MOTION_DDOT":0},{"OBJECT_NAME":"FENGYUN 1C DEB","OBJECT_ID":"1999-025CUU","EPOCH":"2026-02-10T03:33:49.154976","MEAN_MOTION":14.09397708,"ECCENTRICITY":0.00950821,"INCLINATION":98.3441,"RA_OF_ASC_NODE":188.6841,"ARG_OF_PERICENTER":124.2314,"MEAN_ANOMALY":236.7911,"EPHEMERIS_TYPE":0,"CLASSIFICATION_TYPE":"U","NORAD_CAT_ID":32198,"ELEMENT_SET_NO":999,"REV_AT_EPOCH":57782,"BSTAR":0.0019625569,"MEAN_MOTION_DOT":3.532e-5,"MEAN_MOTION_DDOT":0},{"OBJECT_NAME":"FENGYUN 1C DEB","OBJECT_ID":"1999-025CUW","EPOCH":"2026-03-03T01:56:10.879872","MEAN_MOTION":14.16050646,"ECCENTRICITY":0.0040524,"INCLINATION":98.7818,"RA_OF_ASC_NODE":114.9449,"ARG_OF_PERICENTER":63.6325,"MEAN_ANOMALY":296.9001,"EPHEMERIS_TYPE":0,"CLASSIFICATION_TYPE":"U","NORAD_CAT_ID":32200,"ELEMENT_SET_NO":999,"REV_AT_EPOCH":95500,"BSTAR":0.00094521,"MEAN_MOTION_DOT":1.838e-5,"MEAN_MOTION_DDOT":0},{"OBJECT_NAME":"FENGYUN 1C DEB","OBJECT_ID":"1999-025CUZ","EPOCH":"2026-03-02T11:56:17.448288","MEAN_MOTION":15.49020536,"ECCENTRICITY":0.0121816,"INCLINATION":97.0094,"RA_OF_ASC_NODE":315.2895,"ARG_OF_PERICENTER":158.5376,"MEAN_ANOMALY":202.1048,"EPHEMERIS_TYPE":0,"CLASSIFICATION_TYPE":"U","NORAD_CAT_ID":32203,"ELEMENT_SET_NO":999,"REV_AT_EPOCH":76329,"BSTAR":0.00053645448,"MEAN_MOTION_DOT":0.00039356,"MEAN_MOTION_DDOT":0},{"OBJECT_NAME":"FENGYUN 1C DEB","OBJECT_ID":"1999-025CVB","EPOCH":"2026-02-26T11:38:23.330400","MEAN_MOTION":14.13968988,"ECCENTRICITY":0.0012102,"INCLINATION":98.6811,"RA_OF_ASC_NODE":64.1861,"ARG_OF_PERICENTER":75.1667,"MEAN_ANOMALY":77.0454,"EPHEMERIS_TYPE":0,"CLASSIFICATION_TYPE":"U","NORAD_CAT_ID":32205,"ELEMENT_SET_NO":999,"REV_AT_EPOCH":95568,"BSTAR":0.00015823,"MEAN_MOTION_DOT":2.58e-6,"MEAN_MOTION_DDOT":0},{"OBJECT_NAME":"FENGYUN 1C DEB","OBJECT_ID":"1999-025CVD","EPOCH":"2026-02-09T16:33:13.282848","MEAN_MOTION":14.3977982,"ECCENTRICITY":0.00846543,"INCLINATION":99.864,"RA_OF_ASC_NODE":13.4115,"ARG_OF_PERICENTER":329.6656,"MEAN_ANOMALY":209.0182,"EPHEMERIS_TYPE":0,"CLASSIFICATION_TYPE":"U","NORAD_CAT_ID":32207,"ELEMENT_SET_NO":999,"REV_AT_EPOCH":65155,"BSTAR":0.00054335896,"MEAN_MOTION_DOT":1.718e-5,"MEAN_MOTION_DDOT":0},{"OBJECT_NAME":"FENGYUN 1C DEB","OBJECT_ID":"1999-025CVF","EPOCH":"2026-03-01T07:27:26.501760","MEAN_MOTION":13.47437482,"ECCENTRICITY":0.03281428,"INCLINATION":99.426,"RA_OF_ASC_NODE":8.3023,"ARG_OF_PERICENTER":189.1291,"MEAN_ANOMALY":170.3782,"EPHEMERIS_TYPE":0,"CLASSIFICATION_TYPE":"U","NORAD_CAT_ID":32209,"ELEMENT_SET_NO":999,"REV_AT_EPOCH":91034,"BSTAR":0.0010719408,"MEAN_MOTION_DOT":8.69e-6,"MEAN_MOTION_DDOT":0}]
